{"fetched_at":"2026-07-19T07:04:43.841Z","source":"https://celestrak.org/NORAD/elements/gp.php?GROUP=globalstar&FORMAT=JSON","constellation":"globalstar","records":[{"OBJECT_NAME":"GLOBALSTAR M080","OBJECT_ID":"2011-080B","EPOCH":"2026-07-18T06:27:32.350752","CLASSIFICATION_TYPE":"U","MEAN_MOTION":12.62257576,"ECCENTRICITY":0.00002974,"INCLINATION":52.0065,"RA_OF_ASC_NODE":284.3895,"ARG_OF_PERICENTER":76.738,"MEAN_ANOMALY":295.7039,"EPHEMERIS_TYPE":0,"NORAD_CAT_ID":38041,"ELEMENT_SET_NO":999,"REV_AT_EPOCH":67281,"BSTAR":0.00012419676,"MEAN_MOTION_DOT":-8.2e-7,"MEAN_MOTION_DDOT":0},{"OBJECT_NAME":"GLOBALSTAR M082","OBJECT_ID":"2011-080C","EPOCH":"2026-07-18T13:19:40.835136","CLASSIFICATION_TYPE":"U","MEAN_MOTION":12.62264316,"ECCENTRICITY":0.00001831,"INCLINATION":52.0056,"RA_OF_ASC_NODE":239.0219,"ARG_OF_PERICENTER":67.5911,"MEAN_ANOMALY":96.0739,"EPHEMERIS_TYPE":0,"NORAD_CAT_ID":38042,"ELEMENT_SET_NO":999,"REV_AT_EPOCH":67355,"BSTAR":0.000034249653,"MEAN_MOTION_DOT":-9.8e-7,"MEAN_MOTION_DDOT":0},{"OBJECT_NAME":"GLOBALSTAR M092","OBJECT_ID":"2011-080D","EPOCH":"2026-07-18T18:24:19.186272","CLASSIFICATION_TYPE":"U","MEAN_MOTION":12.62267869,"ECCENTRICITY":0.0000747,"INCLINATION":52.0105,"RA_OF_ASC_NODE":328.7754,"ARG_OF_PERICENTER":108.7229,"MEAN_ANOMALY":56.1496,"EPHEMERIS_TYPE":0,"NORAD_CAT_ID":38043,"ELEMENT_SET_NO":999,"REV_AT_EPOCH":67203,"BSTAR":0.00010429,"MEAN_MOTION_DOT":-8.5e-7,"MEAN_MOTION_DDOT":0},{"OBJECT_NAME":"GLOBALSTAR M090","OBJECT_ID":"2011-080E","EPOCH":"2026-07-18T19:42:30.384000","CLASSIFICATION_TYPE":"U","MEAN_MOTION":12.62269594,"ECCENTRICITY":0.0000397,"INCLINATION":52.0099,"RA_OF_ASC_NODE":232.1784,"ARG_OF_PERICENTER":85.4112,"MEAN_ANOMALY":85.7541,"EPHEMERIS_TYPE":0,"NORAD_CAT_ID":38044,"ELEMENT_SET_NO":999,"REV_AT_EPOCH":67370,"BSTAR":0.000013926,"MEAN_MOTION_DOT":-0.00000101,"MEAN_MOTION_DDOT":0},{"OBJECT_NAME":"GLOBALSTAR M086","OBJECT_ID":"2011-080F","EPOCH":"2026-07-18T14:32:38.118336","CLASSIFICATION_TYPE":"U","MEAN_MOTION":12.62287862,"ECCENTRICITY":0.0001452,"INCLINATION":51.9875,"RA_OF_ASC_NODE":232.7109,"ARG_OF_PERICENTER":116.6179,"MEAN_ANOMALY":60.1664,"EPHEMERIS_TYPE":0,"NORAD_CAT_ID":38045,"ELEMENT_SET_NO":999,"REV_AT_EPOCH":67362,"BSTAR":-0.000012888,"MEAN_MOTION_DOT":-0.00000106,"MEAN_MOTION_DDOT":0},{"OBJECT_NAME":"GLOBALSTAR M097","OBJECT_ID":"2013-005A","EPOCH":"2026-07-18T14:22:29.113248","CLASSIFICATION_TYPE":"U","MEAN_MOTION":12.62271325,"ECCENTRICITY":0.0000506,"INCLINATION":52.003,"RA_OF_ASC_NODE":147.7145,"ARG_OF_PERICENTER":43.0635,"MEAN_ANOMALY":317.0271,"EPHEMERIS_TYPE":0,"NORAD_CAT_ID":39072,"ELEMENT_SET_NO":999,"REV_AT_EPOCH":62087,"BSTAR":-0.000010927,"MEAN_MOTION_DOT":-0.00000106,"MEAN_MOTION_DDOT":0},{"OBJECT_NAME":"GLOBALSTAR M093","OBJECT_ID":"2013-005B","EPOCH":"2026-07-18T19:26:02.298912","CLASSIFICATION_TYPE":"U","MEAN_MOTION":12.62266353,"ECCENTRICITY":0.0000739,"INCLINATION":52.0095,"RA_OF_ASC_NODE":140.4321,"ARG_OF_PERICENTER":49.755,"MEAN_ANOMALY":310.3382,"EPHEMERIS_TYPE":0,"NORAD_CAT_ID":39073,"ELEMENT_SET_NO":999,"REV_AT_EPOCH":62085,"BSTAR":0.000065161,"MEAN_MOTION_DOT":-9.2e-7,"MEAN_MOTION_DDOT":0},{"OBJECT_NAME":"GLOBALSTAR M094","OBJECT_ID":"2013-005C","EPOCH":"2026-07-18T19:25:50.083680","CLASSIFICATION_TYPE":"U","MEAN_MOTION":12.62264224,"ECCENTRICITY":0.0001032,"INCLINATION":51.9969,"RA_OF_ASC_NODE":54.5185,"ARG_OF_PERICENTER":68.3429,"MEAN_ANOMALY":291.7548,"EPHEMERIS_TYPE":0,"NORAD_CAT_ID":39074,"ELEMENT_SET_NO":999,"REV_AT_EPOCH":62246,"BSTAR":0.000037439,"MEAN_MOTION_DOT":-9.7e-7,"MEAN_MOTION_DDOT":0},{"OBJECT_NAME":"GLOBALSTAR M096","OBJECT_ID":"2013-005D","EPOCH":"2026-07-18T17:51:17.102016","CLASSIFICATION_TYPE":"U","MEAN_MOTION":12.62265789,"ECCENTRICITY":0.0000812,"INCLINATION":52.0075,"RA_OF_ASC_NODE":103.5445,"ARG_OF_PERICENTER":49.1103,"MEAN_ANOMALY":310.9834,"EPHEMERIS_TYPE":0,"NORAD_CAT_ID":39075,"ELEMENT_SET_NO":999,"REV_AT_EPOCH":62137,"BSTAR":0.00011975,"MEAN_MOTION_DOT":-8.2e-7,"MEAN_MOTION_DDOT":0},{"OBJECT_NAME":"GLOBALSTAR M078","OBJECT_ID":"2013-005E","EPOCH":"2026-07-18T03:54:25.558848","CLASSIFICATION_TYPE":"U","MEAN_MOTION":12.62260116,"ECCENTRICITY":0.00009057,"INCLINATION":51.9845,"RA_OF_ASC_NODE":189.281,"ARG_OF_PERICENTER":346.9844,"MEAN_ANOMALY":13.0999,"EPHEMERIS_TYPE":0,"NORAD_CAT_ID":39076,"ELEMENT_SET_NO":999,"REV_AT_EPOCH":61992,"BSTAR":-0.00010464476,"MEAN_MOTION_DOT":-0.00000123,"MEAN_MOTION_DDOT":0},{"OBJECT_NAME":"GLOBALSTAR M095","OBJECT_ID":"2013-005F","EPOCH":"2026-07-18T15:56:59.260992","CLASSIFICATION_TYPE":"U","MEAN_MOTION":12.62264083,"ECCENTRICITY":0.0000545,"INCLINATION":52.0053,"RA_OF_ASC_NODE":185.4009,"ARG_OF_PERICENTER":19.0354,"MEAN_ANOMALY":341.0533,"EPHEMERIS_TYPE":0,"NORAD_CAT_ID":39077,"ELEMENT_SET_NO":999,"REV_AT_EPOCH":61984,"BSTAR":-0.000093177,"MEAN_MOTION_DOT":-0.0000012,"MEAN_MOTION_DDOT":0},{"OBJECT_NAME":"GLOBALSTAR M087","OBJECT_ID":"2022-064A","EPOCH":"2026-07-18T18:09:52.330752","CLASSIFICATION_TYPE":"U","MEAN_MOTION":12.62269384,"ECCENTRICITY":0.0000899,"INCLINATION":52.0016,"RA_OF_ASC_NODE":326.3411,"ARG_OF_PERICENTER":88.753,"MEAN_ANOMALY":271.3439,"EPHEMERIS_TYPE":0,"NORAD_CAT_ID":52888,"ELEMENT_SET_NO":999,"REV_AT_EPOCH":19512,"BSTAR":0.000081459,"MEAN_MOTION_DOT":-8.9e-7,"MEAN_MOTION_DDOT":0}]}
