GLOBALSTAR M080         
1 38041U 11080B   26199.26912443 -.00000082  00000+0  12420-3 0  9996
2 38041  52.0065 284.3895 0000297  76.7380 295.7039 12.62257576672816
GLOBALSTAR M082         
1 38042U 11080C   26199.55533374 -.00000098  00000+0  34250-4 0  9994
2 38042  52.0056 239.0219 0000183  67.5911  96.0739 12.62264316673557
GLOBALSTAR M092         
1 38043U 11080D   26199.76688873 -.00000085  00000+0  10429-3 0  9990
2 38043  52.0105 328.7754 0000747 108.7229  56.1496 12.62267869672034
GLOBALSTAR M090         
1 38044U 11080E   26199.82118500 -.00000101  00000+0  13926-4 0  9998
2 38044  52.0099 232.1784 0000397  85.4112  85.7541 12.62269594673702
GLOBALSTAR M086         
1 38045U 11080F   26199.60599674 -.00000106  00000+0 -12888-4 0  9992
2 38045  51.9875 232.7109 0001452 116.6179  60.1664 12.62287862673625
GLOBALSTAR M097         
1 39072U 13005A   26199.59894807 -.00000106  00000+0 -10927-4 0  9998
2 39072  52.0030 147.7145 0000506  43.0635 317.0271 12.62271325620879
GLOBALSTAR M093         
1 39073U 13005B   26199.80974883 -.00000092  00000+0  65161-4 0  9999
2 39073  52.0095 140.4321 0000739  49.7550 310.3382 12.62266353620856
GLOBALSTAR M094         
1 39074U 13005C   26199.80960745 -.00000097  00000+0  37439-4 0  9994
2 39074  51.9969  54.5185 0001032  68.3429 291.7548 12.62264224622467
GLOBALSTAR M096         
1 39075U 13005D   26199.74394794 -.00000082  00000+0  11975-3 0  9993
2 39075  52.0075 103.5445 0000812  49.1103 310.9834 12.62265789621371
GLOBALSTAR M078         
1 39076U 13005E   26199.16279582 -.00000123  00000+0 -10464-3 0  9996
2 39076  51.9845 189.2810 0000905 346.9844  13.0999 12.62260116619925
GLOBALSTAR M095         
1 39077U 13005F   26199.66457478 -.00000120  00000+0 -93177-4 0  9994
2 39077  52.0053 185.4009 0000545  19.0354 341.0533 12.62264083619847
GLOBALSTAR M087         
1 52888U 22064A   26199.75685568 -.00000089  00000+0  81459-4 0  9990
2 52888  52.0016 326.3411 0000899  88.7530 271.3439 12.62269384195124
